CARTOSAT-2E             
1 42767U 17036C   26200.84460400  .00001551  00000+0  76780-4 0  9992
2 42767  97.4251 260.1053 0003720 172.3731 187.7561 15.19271568503108
IRIDIUM 113             
1 42803U 17039A   26200.82225895  .00000053  00000+0  11788-4 0  9994
2 42803  86.3992 308.5396 0002127  92.8896 267.2543 14.34217700475862
NORSAT 2                
1 42828U 17042D   26200.76385574  .00005687  00000+0  24844-3 0  9993
2 42828  97.4065  13.7045 0007992 299.4457  60.5982 15.22477336492694
TECHNOSAT               
1 42829U 17042E   26200.42789739  .00001246  00000+0  91427-4 0  9997
2 42829  97.4324 356.8685 0017021 349.5858  10.5014 15.05123837491550
FLYING LAPTOP           
1 42831U 17042G   26200.84554201  .00002067  00000+0  16447-3 0  9990
2 42831  97.4834 355.1546 0019453  17.7534 342.4366 15.01331609491352
WNISAT 1R               
1 42835U 17042L   26200.67279613  .00000256  00000+0  23996-4 0  9992
2 42835  97.4816 355.6342 0010260  50.3345 309.8783 15.01862025491389
LEMUR-2-GREENBERG       
1 42837U 17042N   26200.48787179  .00008759  00000+0  28370-3 0  9990
2 42837  97.3839  20.9886 0007431 241.5042 118.5452 15.32233564493333
LEMUR-2-FURIAUS         
1 42840U 17042R   26200.43830536  .00009277  00000+0  31005-3 0  9990
2 42840  97.3788  18.8215 0005723 311.1861  48.8887 15.31212862493140
CORVUS BC2              
1 42846U 17042X   26200.41128916  .00001310  00000+0  92685-4 0  9998
2 42846  97.4095   0.5175 0013016   8.6130 351.5319 15.06467590491911
CORVUS BC1              
1 42847U 17042Y   26200.40236116  .00001804  00000+0  12561-3 0  9992
2 42847  97.4127   1.3439 0011225 344.9562  15.1331 15.06633122491941
VRSS-2                  
1 42954U 17060A   26200.88287925  .00000403  00000+0  57995-4 0  9992
2 42954  97.6495 237.1354 0017007 358.7345   1.3823 14.81242282473297
MOHAMMED VI-A           
1 43005U 17070A   26200.86245509 -.00000104  00000+0 -75021-5 0  9992
2 43005  97.9542 272.7417 0001276  99.3786 260.7568 14.77104525468804
FENGYUN 3D              
1 43010U 17072A   26200.91806302 -.00000031  00000+0  71754-5 0  9997
2 43010  99.0154 175.9355 0001231   4.5279 355.5907 14.19744742449630
NOAA 20 (JPSS-1)        
1 43013U 17073A   26200.77743681  .00000024  00000+0  32532-4 0  9996
2 43013  98.7772 139.9515 0001545 119.7113 240.4217 14.19517009449097
MAKERSAT 0              
1 43016U 17073D   26199.58482991  .00010616  00000+0  27996-3 0  9994
2 43016  97.4572  82.3624 0105621 160.2361 200.3022 15.33085965471274
RADFXSAT (FOX-1B)       
1 43017U 17073E   26200.88064495  .00003272  00000+0  14432-3 0  9997
2 43017  97.4661  67.4292 0148425 215.1388 143.9985 15.13097485470331
JILIN-1 04              
1 43022U 17074A   26200.83911428  .00008166  00000+0  18598-3 0  9990
2 43022  97.4875 311.3448 0005182  88.1636 272.0205 15.43207460479308
JILIN-1 05              
1 43023U 17074B   26200.86467169  .00004540  00000+0  13900-3 0  9996
2 43023  97.4879 307.4748 0006587 111.9043 248.2901 15.34327509479012
JILIN-1 06              
1 43024U 17074C   26200.84147337  .00003514  00000+0  10913-3 0  9998
2 43024  97.4804 304.4165 0008317 120.4181 239.7885 15.34028448478848
IRIDIUM 116             
1 43072U 17083C   26200.79688924  .00000088  00000+0  24277-4 0  9999
2 43072  86.3987 308.3704 0002490  97.8412 262.3067 14.34216841448848
IRIDIUM 130             
1 43073U 17083D   26200.76517610  .00000132  00000+0  39922-4 0  9993
2 43073  86.3994 308.6621 0002357 100.2728 259.8734 14.34218947448783
LKW-2                   
1 43080U 17084A   26200.86889751  .00002076  00000+0  81622-4 0  9994
2 43080  97.1175 239.1425 0003913 110.9505 249.2154 15.26721409476674
SUPERVIEW-1 03          
1 43099U 18002A   26200.85315940  .00009886  00000+0  23809-3 0  9996
2 43099  97.3122 285.6636 0046600  64.7767 295.8299 15.40312020473398
CARTOSAT-2F             
1 43111U 18004A   26200.87738302  .00001803  00000+0  88951-4 0  9997
2 43111  97.4766 260.1892 0002613 125.0026 235.1454 15.19192904472296
LKW-3                   
1 43146U 18006A   26200.83201593  .00008367  00000+0  24257-3 0  9990
2 43146  97.6652   2.7009 0003468 163.8606 196.2748 15.35810048473729
ASNARO-2                
1 43152U 18007A   26200.98408176  .00005598  00000+0  24532-3 0  9999
2 43152  97.3980 207.3993 0001828  88.3955 271.7491 15.22400994472407
JILIN-1 07              
1 43159U 18008E   26200.81812238  .00004753  00000+0  14129-3 0  9990
2 43159  97.1769 219.8864 0006358 307.5658  52.5008 15.35208604470002
JILIN-1 08              
1 43160U 18008F   26200.84165655  .00003271  00000+0  10161-3 0  9995
2 43160  97.1805 219.1883 0004765 333.3704  26.7294 15.34040495469951
