OBJECT_NAME,OBJECT_ID,EPOCH,MEAN_MOTION,ECCENTRICITY,INCLINATION,RA_OF_ASC_NODE,ARG_OF_PERICENTER,MEAN_ANOMALY,EPHEMERIS_TYPE,CLASSIFICATION_TYPE,NORAD_CAT_ID,ELEMENT_SET_NO,REV_AT_EPOCH,BSTAR,MEAN_MOTION_DOT,MEAN_MOTION_DDOT
CARTOSAT-2E,2017-036C,2026-07-19T20:16:13.785600,15.19271568,.000372,97.4251,260.1053,172.3731,187.7561,0,U,42767,999,50310,.7678E-4,.1551E-4,0
IRIDIUM 113,2017-039A,2026-07-19T19:44:03.173280,14.34217700,.0002127,86.3992,308.5396,92.8896,267.2543,0,U,42803,999,47586,.11788E-4,.53E-6,0
NORSAT 2,2017-042D,2026-07-19T18:19:57.135936,15.22477336,.0007992,97.4065,13.7045,299.4457,60.5982,0,U,42828,999,49269,.24844E-3,.5687E-4,0
TECHNOSAT,2017-042E,2026-07-19T10:16:10.334496,15.05123837,.00170216,97.4324,356.8685,349.5858,10.5014,0,U,42829,999,49155,.91426722E-4,.1246E-4,0
FLYING LAPTOP,2017-042G,2026-07-19T20:17:34.829664,15.01331609,.0019453,97.4834,355.1546,17.7534,342.4366,0,U,42831,999,49135,.16447E-3,.2067E-4,0
WNISAT 1R,2017-042L,2026-07-19T16:08:49.585632,15.01862025,.001026,97.4816,355.6342,50.3345,309.8783,0,U,42835,999,49138,.23996E-4,.256E-5,0
LEMUR-2-GREENBERG,2017-042N,2026-07-19T11:42:32.122656,15.32233564,.00074313,97.3839,20.9886,241.5042,118.5452,0,U,42837,999,49333,.28369999E-3,.8759E-4,0
LEMUR-2-FURIAUS,2017-042R,2026-07-19T10:31:09.583104,15.31212862,.00057234,97.3788,18.8215,311.1861,48.8887,0,U,42840,999,49314,.31005454E-3,.9277E-4,0
CORVUS BC2,2017-042X,2026-07-19T09:52:15.383424,15.06467590,.00130162,97.4095,0.5175,8.6130,351.5319,0,U,42846,999,49191,.92685383E-4,.131E-4,0
CORVUS BC1,2017-042Y,2026-07-19T09:39:24.004224,15.06633122,.00112255,97.4127,1.3439,344.9562,15.1331,0,U,42847,999,49194,.12561482E-3,.1804E-4,0
VRSS-2,2017-060A,2026-07-19T21:11:20.767200,14.81242282,.0017007,97.6495,237.1354,358.7345,1.3823,0,U,42954,999,47329,.57995E-4,.403E-5,0
MOHAMMED VI-A,2017-070A,2026-07-19T20:41:56.119776,14.77104525,.0001276,97.9542,272.7417,99.3786,260.7568,0,U,43005,999,46880,-.75021E-5,-.104E-5,0
FENGYUN 3D,2017-072A,2026-07-19T22:02:00.644928,14.19744742,.0001231,99.0154,175.9355,4.5279,355.5907,0,U,43010,999,44963,.71754E-5,-.31E-6,0
NOAA 20 (JPSS-1),2017-073A,2026-07-19T18:39:30.540384,14.19517009,.0001545,98.7772,139.9515,119.7113,240.4217,0,U,43013,999,44909,.32532E-4,.24E-6,0
MAKERSAT 0,2017-073D,2026-07-18T14:02:09.304224,15.33085965,.0105621,97.4572,82.3624,160.2361,200.3022,0,U,43016,999,47127,.27996E-3,.10616E-3,0
RADFXSAT (FOX-1B),2017-073E,2026-07-19T21:08:07.723680,15.13097485,.0148425,97.4661,67.4292,215.1388,143.9985,0,U,43017,999,47033,.14432E-3,.3272E-4,0
JILIN-1 04,2017-074A,2026-07-19T20:08:19.473792,15.43207460,.0005182,97.4875,311.3448,88.1636,272.0205,0,U,43022,999,47930,.18598E-3,.8166E-4,0
JILIN-1 05,2017-074B,2026-07-19T20:45:07.634016,15.34327509,.0006587,97.4879,307.4748,111.9043,248.2901,0,U,43023,999,47901,.139E-3,.454E-4,0
JILIN-1 06,2017-074C,2026-07-19T20:11:43.299168,15.34028448,.0008317,97.4804,304.4165,120.4181,239.7885,0,U,43024,999,47884,.10913E-3,.3514E-4,0
IRIDIUM 116,2017-083C,2026-07-19T19:07:31.230336,14.34216841,.000249,86.3987,308.3704,97.8412,262.3067,0,U,43072,999,44884,.24277E-4,.88E-6,0
IRIDIUM 130,2017-083D,2026-07-19T18:21:51.215040,14.34218947,.0002357,86.3994,308.6621,100.2728,259.8734,0,U,43073,999,44878,.39922E-4,.132E-5,0
LKW-2,2017-084A,2026-07-19T20:51:12.744864,15.26721409,.0003913,97.1175,239.1425,110.9505,249.2154,0,U,43080,999,47667,.81622E-4,.2076E-4,0
SUPERVIEW-1 03,2018-002A,2026-07-19T20:28:32.972160,15.40312020,.00466,97.3122,285.6636,64.7767,295.8299,0,U,43099,999,47339,.23809E-3,.9886E-4,0
CARTOSAT-2F,2018-004A,2026-07-19T21:03:25.892928,15.19192904,.0002613,97.4766,260.1892,125.0026,235.1454,0,U,43111,999,47229,.88951E-4,.1803E-4,0
LKW-3,2018-006A,2026-07-19T19:58:06.176352,15.35810048,.0003468,97.6652,2.7009,163.8606,196.2748,0,U,43146,999,47372,.24257E-3,.8367E-4,0
ASNARO-2,2018-007A,2026-07-19T23:37:04.664064,15.22400994,.0001828,97.3980,207.3993,88.3955,271.7491,0,U,43152,999,47240,.24532E-3,.5598E-4,0
JILIN-1 07,2018-008E,2026-07-19T19:38:05.773632,15.35208604,.0006358,97.1769,219.8864,307.5658,52.5008,0,U,43159,999,47000,.14129E-3,.4753E-4,0
JILIN-1 08,2018-008F,2026-07-19T20:11:59.125920,15.34040495,.0004765,97.1805,219.1883,333.3704,26.7294,0,U,43160,999,46995,.10161E-3,.3271E-4,0
